STARLINK-32154          
1 60276U 24131X   25219.59356881 -.00000760  00000+0 -13548-4 0  9995
2 60276  53.1603 326.5924 0001079  92.5836 267.5288 15.30185309 58930
STARLINK-32135          
1 60277U 24131Y   25219.54513346 -.00000455  00000+0 -32468-5 0  9996
2 60277  53.1618 326.9968 0001200 106.0265 254.0868 15.30188840 58929
STARLINK-32156          
1 60278U 24132A   25219.66628415 -.00000041  00000+0  10744-4 0  9997
2 60278  53.1610 326.4651 0001051  93.2552 266.8569 15.30192765 60019
STARLINK-32010          
1 60279U 24132B   25219.63368687  .00000863  00000+0  41266-4 0  9991
2 60279  53.1610 326.9765 0001173  87.3226 272.7909 15.30182920 58785
STARLINK-32118          
1 60280U 24132C   25219.65995346 -.00001122  00000+0 -25764-4 0  9999
2 60280  53.1598 326.4240 0000878  96.3200 263.7901 15.30197160 58793
STARLINK-32038          
1 60281U 24132D   25219.66206589  .00006821  00000+0  24222-3 0  9991
2 60281  53.1585 326.4398 0001163 100.4701 259.6431 15.30199194 58796
STARLINK-32113          
1 60282U 24132E   25219.66313761  .00000869  00000+0  41496-4 0  9992
2 60282  53.1604 326.4451 0001001  96.4010 263.7105 15.30170706 58799
STARLINK-32037          
1 60283U 24132F   25219.61785944 -.00000556  00000+0 -66392-5 0  9992
2 60283  53.1616 326.8716 0001186  90.4297 269.6840 15.30184239 58782
STARLINK-32123          
1 60284U 24132G   25219.62152347  .00000251  00000+0  20588-4 0  9995
2 60284  53.1596 314.1292 0001104  75.2202 284.8921 15.30196826 58960
STARLINK-32122          
1 60285U 24132H   25219.61152770  .00000050  00000+0  13822-4 0  9995
2 60285  53.1610 326.8345 0001182  99.3861 260.7274 15.30183327 58787
STARLINK-31656          
1 60286U 24132J   25219.65362388 -.00000236  00000+0  41494-5 0  9992
2 60286  53.1611 326.3910 0001150  75.5388 284.5740 15.30193843 58794
STARLINK-32114          
1 60287U 24132K   25219.63790237  .00000801  00000+0  39187-4 0  9991
2 60287  53.1616 326.9968 0001222  79.2966 280.8172 15.30195630 58774
STARLINK-31997          
1 60288U 24132L   25219.64412510  .00000536  00000+0  30217-4 0  9998
2 60288  53.1614 326.3249 0001257  80.9593 279.1550 15.30187317 58787
STARLINK-32000          
1 60289U 24132M   25219.62102877 -.00000246  00000+0  38217-5 0  9997
2 60289  53.1615 326.8950 0001229  97.3111 262.8030 15.30178338 58785
STARLINK-32141          
1 60290U 24132N   25219.53987938  .00001633  00000+0  67305-4 0  9997
2 60290  53.1610 327.0962 0000937  97.6851 262.4256 15.30175415 58775
STARLINK-32142          
1 60291U 24132P   25219.64939889  .00001023  00000+0  46653-4 0  9998
2 60291  53.1615 326.3569 0001186  73.2305 286.8826 15.30192170 58799
STARLINK-32149          
1 60292U 24132Q   25219.62418779  .00000617  00000+0  32959-4 0  9999
2 60292  53.1608 326.9162 0001328  87.8232 272.2921 15.30187949 58787
