[{"OBJECT_NAME":"STARLINK-32154","OBJECT_ID":"2024-131X","EPOCH":"2025-08-07T14:14:44.345184","MEAN_MOTION":15.30185309,"ECCENTRICITY":0.0001079,"INCLINATION":53.1603,"RA_OF_ASC_NODE":326.5924,"ARG_OF_PERICENTER":92.5836,"MEAN_ANOMALY":267.5288,"EPHEMERIS_TYPE":0,"CLASSIFICATION_TYPE":"U","NORAD_CAT_ID":60276,"ELEMENT_SET_NO":999,"REV_AT_EPOCH":5893,"BSTAR":-1.3548e-5,"MEAN_MOTION_DOT":-7.6e-6,"MEAN_MOTION_DDOT":0},{"OBJECT_NAME":"STARLINK-32135","OBJECT_ID":"2024-131Y","EPOCH":"2025-08-07T13:04:59.530944","MEAN_MOTION":15.3018884,"ECCENTRICITY":0.00012,"INCLINATION":53.1618,"RA_OF_ASC_NODE":326.9968,"ARG_OF_PERICENTER":106.0265,"MEAN_ANOMALY":254.0868,"EPHEMERIS_TYPE":0,"CLASSIFICATION_TYPE":"U","NORAD_CAT_ID":60277,"ELEMENT_SET_NO":999,"REV_AT_EPOCH":5892,"BSTAR":-3.2468e-6,"MEAN_MOTION_DOT":-4.55e-6,"MEAN_MOTION_DDOT":0},{"OBJECT_NAME":"STARLINK-32156","OBJECT_ID":"2024-132A","EPOCH":"2025-08-07T15:59:26.950560","MEAN_MOTION":15.30192765,"ECCENTRICITY":0.00010513,"INCLINATION":53.161,"RA_OF_ASC_NODE":326.4651,"ARG_OF_PERICENTER":93.2552,"MEAN_ANOMALY":266.8569,"EPHEMERIS_TYPE":0,"CLASSIFICATION_TYPE":"U","NORAD_CAT_ID":60278,"ELEMENT_SET_NO":999,"REV_AT_EPOCH":6001,"BSTAR":1.074448e-5,"MEAN_MOTION_DOT":-4.1e-7,"MEAN_MOTION_DDOT":0},{"OBJECT_NAME":"STARLINK-32010","OBJECT_ID":"2024-132B","EPOCH":"2025-08-07T15:12:30.545568","MEAN_MOTION":15.3018292,"ECCENTRICITY":0.00011731,"INCLINATION":53.161,"RA_OF_ASC_NODE":326.9765,"ARG_OF_PERICENTER":87.3226,"MEAN_ANOMALY":272.7909,"EPHEMERIS_TYPE":0,"CLASSIFICATION_TYPE":"U","NORAD_CAT_ID":60279,"ELEMENT_SET_NO":999,"REV_AT_EPOCH":5878,"BSTAR":4.1266464e-5,"MEAN_MOTION_DOT":8.63e-6,"MEAN_MOTION_DDOT":0},{"OBJECT_NAME":"STARLINK-32118","OBJECT_ID":"2024-132C","EPOCH":"2025-08-07T15:50:19.978944","MEAN_MOTION":15.3019716,"ECCENTRICITY":8.78e-5,"INCLINATION":53.1598,"RA_OF_ASC_NODE":326.424,"ARG_OF_PERICENTER":96.32,"MEAN_ANOMALY":263.7901,"EPHEMERIS_TYPE":0,"CLASSIFICATION_TYPE":"U","NORAD_CAT_ID":60280,"ELEMENT_SET_NO":999,"REV_AT_EPOCH":5879,"BSTAR":-2.5764151e-5,"MEAN_MOTION_DOT":-1.122e-5,"MEAN_MOTION_DDOT":0},{"OBJECT_NAME":"STARLINK-32038","OBJECT_ID":"2024-132D","EPOCH":"2025-08-07T15:53:22.492896","MEAN_MOTION":15.30199194,"ECCENTRICITY":0.00011634,"INCLINATION":53.1585,"RA_OF_ASC_NODE":326.4398,"ARG_OF_PERICENTER":100.4701,"MEAN_ANOMALY":259.6431,"EPHEMERIS_TYPE":0,"CLASSIFICATION_TYPE":"U","NORAD_CAT_ID":60281,"ELEMENT_SET_NO":999,"REV_AT_EPOCH":5879,"BSTAR":0.00024221742,"MEAN_MOTION_DOT":6.821e-5,"MEAN_MOTION_DDOT":0},{"OBJECT_NAME":"STARLINK-32113","OBJECT_ID":"2024-132E","EPOCH":"2025-08-07T15:54:55.089504","MEAN_MOTION":15.30170706,"ECCENTRICITY":0.00010013,"INCLINATION":53.1604,"RA_OF_ASC_NODE":326.4451,"ARG_OF_PERICENTER":96.401,"MEAN_ANOMALY":263.7105,"EPHEMERIS_TYPE":0,"CLASSIFICATION_TYPE":"U","NORAD_CAT_ID":60282,"ELEMENT_SET_NO":999,"REV_AT_EPOCH":5879,"BSTAR":4.1496403e-5,"MEAN_MOTION_DOT":8.69e-6,"MEAN_MOTION_DDOT":0},{"OBJECT_NAME":"STARLINK-32037","OBJECT_ID":"2024-132F","EPOCH":"2025-08-07T14:49:43.055616","MEAN_MOTION":15.30184239,"ECCENTRICITY":0.00011869,"INCLINATION":53.1616,"RA_OF_ASC_NODE":326.8716,"ARG_OF_PERICENTER":90.4297,"MEAN_ANOMALY":269.684,"EPHEMERIS_TYPE":0,"CLASSIFICATION_TYPE":"U","NORAD_CAT_ID":60283,"ELEMENT_SET_NO":999,"REV_AT_EPOCH":5878,"BSTAR":-6.6392e-6,"MEAN_MOTION_DOT":-5.56e-6,"MEAN_MOTION_DDOT":0},{"OBJECT_NAME":"STARLINK-32123","OBJECT_ID":"2024-132G","EPOCH":"2025-08-07T14:54:59.627808","MEAN_MOTION":15.30196826,"ECCENTRICITY":0.0001104,"INCLINATION":53.1596,"RA_OF_ASC_NODE":314.1292,"ARG_OF_PERICENTER":75.2202,"MEAN_ANOMALY":284.8921,"EPHEMERIS_TYPE":0,"CLASSIFICATION_TYPE":"U","NORAD_CAT_ID":60284,"ELEMENT_SET_NO":999,"REV_AT_EPOCH":5896,"BSTAR":2.0588e-5,"MEAN_MOTION_DOT":2.51e-6,"MEAN_MOTION_DDOT":0},{"OBJECT_NAME":"STARLINK-32122","OBJECT_ID":"2024-132H","EPOCH":"2025-08-07T14:40:35.993280","MEAN_MOTION":15.30183327,"ECCENTRICITY":0.00011827,"INCLINATION":53.161,"RA_OF_ASC_NODE":326.8345,"ARG_OF_PERICENTER":99.3861,"MEAN_ANOMALY":260.7274,"EPHEMERIS_TYPE":0,"CLASSIFICATION_TYPE":"U","NORAD_CAT_ID":60285,"ELEMENT_SET_NO":999,"REV_AT_EPOCH":5878,"BSTAR":1.3821849e-5,"MEAN_MOTION_DOT":5.0e-7,"MEAN_MOTION_DDOT":0},{"OBJECT_NAME":"STARLINK-31656","OBJECT_ID":"2024-132J","EPOCH":"2025-08-07T15:41:13.103232","MEAN_MOTION":15.30193843,"ECCENTRICITY":0.00011507,"INCLINATION":53.1611,"RA_OF_ASC_NODE":326.391,"ARG_OF_PERICENTER":75.5388,"MEAN_ANOMALY":284.574,"EPHEMERIS_TYPE":0,"CLASSIFICATION_TYPE":"U","NORAD_CAT_ID":60286,"ELEMENT_SET_NO":999,"REV_AT_EPOCH":5879,"BSTAR":4.149425e-6,"MEAN_MOTION_DOT":-2.36e-6,"MEAN_MOTION_DDOT":0},{"OBJECT_NAME":"STARLINK-32114","OBJECT_ID":"2024-132K","EPOCH":"2025-08-07T15:18:34.764768","MEAN_MOTION":15.3019563,"ECCENTRICITY":0.0001222,"INCLINATION":53.1616,"RA_OF_ASC_NODE":326.9968,"ARG_OF_PERICENTER":79.2966,"MEAN_ANOMALY":280.8172,"EPHEMERIS_TYPE":0,"CLASSIFICATION_TYPE":"U","NORAD_CAT_ID":60287,"ELEMENT_SET_NO":999,"REV_AT_EPOCH":5877,"BSTAR":3.9187e-5,"MEAN_MOTION_DOT":8.01e-6,"MEAN_MOTION_DDOT":0},{"OBJECT_NAME":"STARLINK-31997","OBJECT_ID":"2024-132L","EPOCH":"2025-08-07T15:27:32.408640","MEAN_MOTION":15.30187317,"ECCENTRICITY":0.0001257,"INCLINATION":53.1614,"RA_OF_ASC_NODE":326.3249,"ARG_OF_PERICENTER":80.9593,"MEAN_ANOMALY":279.155,"EPHEMERIS_TYPE":0,"CLASSIFICATION_TYPE":"U","NORAD_CAT_ID":60288,"ELEMENT_SET_NO":999,"REV_AT_EPOCH":5878,"BSTAR":3.0217e-5,"MEAN_MOTION_DOT":5.36e-6,"MEAN_MOTION_DDOT":0},{"OBJECT_NAME":"STARLINK-32000","OBJECT_ID":"2024-132M","EPOCH":"2025-08-07T14:54:16.885728","MEAN_MOTION":15.30178338,"ECCENTRICITY":0.00012299,"INCLINATION":53.1615,"RA_OF_ASC_NODE":326.895,"ARG_OF_PERICENTER":97.3111,"MEAN_ANOMALY":262.803,"EPHEMERIS_TYPE":0,"CLASSIFICATION_TYPE":"U","NORAD_CAT_ID":60289,"ELEMENT_SET_NO":999,"REV_AT_EPOCH":5878,"BSTAR":3.821745e-6,"MEAN_MOTION_DOT":-2.46e-6,"MEAN_MOTION_DDOT":0},{"OBJECT_NAME":"STARLINK-32141","OBJECT_ID":"2024-132N","EPOCH":"2025-08-07T12:57:25.578432","MEAN_MOTION":15.30175415,"ECCENTRICITY":9.37e-5,"INCLINATION":53.161,"RA_OF_ASC_NODE":327.0962,"ARG_OF_PERICENTER":97.6851,"MEAN_ANOMALY":262.4256,"EPHEMERIS_TYPE":0,"CLASSIFICATION_TYPE":"U","NORAD_CAT_ID":60290,"ELEMENT_SET_NO":999,"REV_AT_EPOCH":5877,"BSTAR":6.7305e-5,"MEAN_MOTION_DOT":1.633e-5,"MEAN_MOTION_DDOT":0},{"OBJECT_NAME":"STARLINK-32142","OBJECT_ID":"2024-132P","EPOCH":"2025-08-07T15:35:08.064096","MEAN_MOTION":15.3019217,"ECCENTRICITY":0.0001186,"INCLINATION":53.1615,"RA_OF_ASC_NODE":326.3569,"ARG_OF_PERICENTER":73.2305,"MEAN_ANOMALY":286.8826,"EPHEMERIS_TYPE":0,"CLASSIFICATION_TYPE":"U","NORAD_CAT_ID":60291,"ELEMENT_SET_NO":999,"REV_AT_EPOCH":5879,"BSTAR":4.6653e-5,"MEAN_MOTION_DOT":1.023e-5,"MEAN_MOTION_DDOT":0},{"OBJECT_NAME":"STARLINK-32149","OBJECT_ID":"2024-132Q","EPOCH":"2025-08-07T14:58:49.825056","MEAN_MOTION":15.30187949,"ECCENTRICITY":0.0001328,"INCLINATION":53.1608,"RA_OF_ASC_NODE":326.9162,"ARG_OF_PERICENTER":87.8232,"MEAN_ANOMALY":272.2921,"EPHEMERIS_TYPE":0,"CLASSIFICATION_TYPE":"U","NORAD_CAT_ID":60292,"ELEMENT_SET_NO":999,"REV_AT_EPOCH":5878,"BSTAR":3.2959e-5,"MEAN_MOTION_DOT":6.17e-6,"MEAN_MOTION_DDOT":0}]
